FENGYUN 1C DEB          
1 29880U 99025GA  17345.64694236  .00000085  00000-0  84342-4 0  9990
2 29880  98.1767 224.8695 0253622 293.4380 117.9392 13.85227474550388
